{
  "type": "FeatureCollection",
  "features": [
    {
      "type": "Feature",
      "properties": {
        "norad_id": 43647,
        "name": "BEIDOU-3 M16 (C35)",
        "group": "gnss",
        "lat": 51.49166801637771,
        "lon": 10.91793903482562,
        "alt_km": 21509.96567480678,
        "timestamp": "2025-12-21T09:37:22.897807+00:00",
        "meta_object_name": "BEIDOU-3 M16 (C35)",
        "meta_object_id": "2018-078A",
        "meta_epoch": "2025-12-20T18:04:14.060064",
        "meta_mean_motion": 1.86232385,
        "meta_eccentricity": 0.00073586,
        "meta_inclination": 54.2545,
        "meta_ra_of_asc_node": 306.2412,
        "meta_arg_of_pericenter": 20.0204,
        "meta_mean_anomaly": 340.0034,
        "meta_ephemeris_type": 0,
        "meta_classification_type": "U",
        "meta_norad_cat_id": 43647,
        "meta_element_set_no": 999,
        "meta_rev_at_epoch": 4883,
        "meta_bstar": 0,
        "meta_mean_motion_dot": -6.5e-07,
        "meta_mean_motion_ddot": 0,
        "tle_line1": "1 43647U 18078A   25354.75294051 -.00000065  00000+0  00000+0 0  9990",
        "tle_line2": "2 43647  54.2545 306.2412 0007358  20.0204 340.0034  1.86232385 48835"
      },
      "geometry": {
        "type": "Point",
        "coordinates": [
          10.91793903482562,
          51.49166801637771
        ]
      }
    },
    {
      "type": "Feature",
      "properties": {
        "norad_id": 43648,
        "name": "BEIDOU-3 M15 (C34)",
        "group": "gnss",
        "lat": -9.861222250266163,
        "lon": -60.9897841339368,
        "alt_km": 21519.997495506657,
        "timestamp": "2025-12-21T09:37:22.897818+00:00",
        "meta_object_name": "BEIDOU-3 M15 (C34)",
        "meta_object_id": "2018-078B",
        "meta_epoch": "2025-12-20T21:10:18.962688",
        "meta_mean_motion": 1.8623233,
        "meta_eccentricity": 0.0003994,
        "meta_inclination": 54.2503,
        "meta_ra_of_asc_node": 306.237,
        "meta_arg_of_pericenter": 19.942,
        "meta_mean_anomaly": 340.0692,
        "meta_ephemeris_type": 0,
        "meta_classification_type": "U",
        "meta_norad_cat_id": 43648,
        "meta_element_set_no": 999,
        "meta_rev_at_epoch": 4885,
        "meta_bstar": 0,
        "meta_mean_motion_dot": -6.5e-07,
        "meta_mean_motion_ddot": 0,
        "tle_line1": "1 43648U 18078B   25354.88216392 -.00000065  00000+0  00000+0 0  9997",
        "tle_line2": "2 43648  54.2503 306.2370 0003994  19.9420 340.0692  1.86232330 48854"
      },
      "geometry": {
        "type": "Point",
        "coordinates": [
          -60.9897841339368,
          -9.861222250266163
        ]
      }
    },
    {
      "type": "Feature",
      "properties": {
        "norad_id": 43683,
        "name": "BEIDOU-3 G1 (C59)",
        "group": "gnss",
        "lat": -2.622576885868959,
        "lon": 14.560484704279249,
        "alt_km": 35792.015513783874,
        "timestamp": "2025-12-21T09:37:22.897832+00:00",
        "meta_object_name": "BEIDOU-3 G1 (C59)",
        "meta_object_id": "2018-085A",
        "meta_epoch": "2025-12-21T03:35:19.372992",
        "meta_mean_motion": 1.00268246,
        "meta_eccentricity": 0.0001567,
        "meta_inclination": 2.6277,
        "meta_ra_of_asc_node": 102.7198,
        "meta_arg_of_pericenter": 45.9778,
        "meta_mean_anomaly": 135.1179,
        "meta_ephemeris_type": 0,
        "meta_classification_type": "U",
        "meta_norad_cat_id": 43683,
        "meta_element_set_no": 999,
        "meta_rev_at_epoch": 2627,
        "meta_bstar": 0,
        "meta_mean_motion_dot": -2.57e-06,
        "meta_mean_motion_ddot": 0,
        "tle_line1": "1 43683U 18085A   25355.14952978 -.00000257  00000+0  00000+0 0  9994",
        "tle_line2": "2 43683   2.6277 102.7198 0001567  45.9778 135.1179  1.00268246 26270"
      },
      "geometry": {
        "type": "Point",
        "coordinates": [
          14.560484704279249,
          -2.622576885868959
        ]
      }
    },
    {
      "type": "Feature",
      "properties": {
        "norad_id": 43687,
        "name": "COSMOS 2529 (757)",
        "group": "gnss",
        "lat": 45.87241609714241,
        "lon": -131.6030715473597,
        "alt_km": 19141.360246796143,
        "timestamp": "2025-12-21T09:37:22.897845+00:00",
        "meta_object_name": "COSMOS 2529 (757)",
        "meta_object_id": "2018-086A",
        "meta_epoch": "2025-12-20T20:42:25.544160",
        "meta_mean_motion": 2.13102145,
        "meta_eccentricity": 0.0007021,
        "meta_inclination": 64.2923,
        "meta_ra_of_asc_node": 198.6139,
        "meta_arg_of_pericenter": 253.6005,
        "meta_mean_anomaly": 106.3966,
        "meta_ephemeris_type": 0,
        "meta_classification_type": "U",
        "meta_norad_cat_id": 43687,
        "meta_element_set_no": 999,
        "meta_rev_at_epoch": 5548,
        "meta_bstar": 0,
        "meta_mean_motion_dot": 9.8e-07,
        "meta_mean_motion_ddot": 0,
        "tle_line1": "1 43687U 18086A   25354.86279565  .00000098  00000+0  00000+0 0  9993",
        "tle_line2": "2 43687  64.2923 198.6139 0007021 253.6005 106.3966  2.13102145 55486"
      },
      "geometry": {
        "type": "Point",
        "coordinates": [
          -131.6030715473597,
          45.87241609714241
        ]
      }
    },
    {
      "type": "Feature",
      "properties": {
        "norad_id": 43706,
        "name": "BEIDOU-3 M17 (C36)",
        "group": "gnss",
        "lat": -45.350048194359154,
        "lon": 55.36216645033228,
        "alt_km": 21526.698220895163,
        "timestamp": "2025-12-21T09:37:22.897857+00:00",
        "meta_object_name": "BEIDOU-3 M17 (C36)",
        "meta_object_id": "2018-093A",
        "meta_epoch": "2025-12-20T12:04:20.840736",
        "meta_mean_motion": 1.86228485,
        "meta_eccentricity": 0.00060883,
        "meta_inclination": 54.1751,
        "meta_ra_of_asc_node": 188.3582,
        "meta_arg_of_pericenter": 307.8758,
        "meta_mean_anomaly": 51.559,
        "meta_ephemeris_type": 0,
        "meta_classification_type": "U",
        "meta_norad_cat_id": 43706,
        "meta_element_set_no": 999,
        "meta_rev_at_epoch": 4820,
        "meta_bstar": 0,
        "meta_mean_motion_dot": 9.7e-07,
        "meta_mean_motion_ddot": 0,
        "tle_line1": "1 43706U 18093A   25354.50301899  .00000097  00000+0  00000+0 0  9999",
        "tle_line2": "2 43706  54.1751 188.3582 0006088 307.8758  51.5590  1.86228485 48203"
      },
      "geometry": {
        "type": "Point",
        "coordinates": [
          55.36216645033228,
          -45.350048194359154
        ]
      }
    },
    {
      "type": "Feature",
      "properties": {
        "norad_id": 43707,
        "name": "BEIDOU-3 M18 (C37)",
        "group": "gnss",
        "lat": -20.640355327033134,
        "lon": 172.52473861833022,
        "alt_km": 21514.932482858247,
        "timestamp": "2025-12-21T09:37:22.897868+00:00",
        "meta_object_name": "BEIDOU-3 M18 (C37)",
        "meta_object_id": "2018-093B",
        "meta_epoch": "2025-12-20T21:39:28.587744",
        "meta_mean_motion": 1.86226757,
        "meta_eccentricity": 0.0006217,
        "meta_inclination": 54.1741,
        "meta_ra_of_asc_node": 188.3365,
        "meta_arg_of_pericenter": 353.7926,
        "meta_mean_anomaly": 6.2524,
        "meta_ephemeris_type": 0,
        "meta_classification_type": "U",
        "meta_norad_cat_id": 43707,
        "meta_element_set_no": 999,
        "meta_rev_at_epoch": 4821,
        "meta_bstar": 0,
        "meta_mean_motion_dot": 9.5e-07,
        "meta_mean_motion_ddot": 0,
        "tle_line1": "1 43707U 18093B   25354.90241421  .00000095  00000+0  00000+0 0  9996",
        "tle_line2": "2 43707  54.1741 188.3365 0006217 353.7926   6.2524  1.86226757 48218"
      },
      "geometry": {
        "type": "Point",
        "coordinates": [
          172.52473861833022,
          -20.640355327033134
        ]
      }
    },
    {
      "type": "Feature",
      "properties": {
        "norad_id": 43873,
        "name": "GPS BIII-1  (PRN 04)",
        "group": "gnss",
        "lat": -54.90083390438432,
        "lon": 22.161863442427425,
        "alt_km": 20174.836909680907,
        "timestamp": "2025-12-21T09:37:22.897880+00:00",
        "meta_object_name": "GPS BIII-1  (PRN 04)",
        "meta_object_id": "2018-109A",
        "meta_epoch": "2025-12-20T14:49:36.231744",
        "meta_mean_motion": 2.00553966,
        "meta_eccentricity": 0.0037575,
        "meta_inclination": 55.571,
        "meta_ra_of_asc_node": 99.2363,
        "meta_arg_of_pericenter": 195.36,
        "meta_mean_anomaly": 236.122,
        "meta_ephemeris_type": 0,
        "meta_classification_type": "U",
        "meta_norad_cat_id": 43873,
        "meta_element_set_no": 999,
        "meta_rev_at_epoch": 5149,
        "meta_bstar": 0,
        "meta_mean_motion_dot": -1.2e-07,
        "meta_mean_motion_ddot": 0,
        "tle_line1": "1 43873U 18109A   25354.61778046 -.00000012  00000+0  00000+0 0  9994",
        "tle_line2": "2 43873  55.5710  99.2363 0037575 195.3600 236.1220  2.00553966 51494"
      },
      "geometry": {
        "type": "Point",
        "coordinates": [
          22.161863442427425,
          -54.90083390438432
        ]
      }
    }
  ]
}